[{"OBJECT_NAME":"KUIPER-00218","OBJECT_ID":"2026-030S","EPOCH":"2026-03-05T14:30:00.310464","MEAN_MOTION":15.35000869,"ECCENTRICITY":0.00067349,"INCLINATION":51.8838,"RA_OF_ASC_NODE":238.9395,"ARG_OF_PERICENTER":39.0005,"MEAN_ANOMALY":321.1466,"EPHEMERIS_TYPE":0,"CLASSIFICATION_TYPE":"U","NORAD_CAT_ID":67780,"ELEMENT_SET_NO":999,"REV_AT_EPOCH":446,"BSTAR":0.001017095,"MEAN_MOTION_DOT":0.00034864,"MEAN_MOTION_DDOT":0},{"OBJECT_NAME":"KUIPER-00220","OBJECT_ID":"2026-030T","EPOCH":"2026-03-05T14:38:52.501632","MEAN_MOTION":15.34573836,"ECCENTRICITY":0.00083122,"INCLINATION":51.8813,"RA_OF_ASC_NODE":238.9719,"ARG_OF_PERICENTER":44.9394,"MEAN_ANOMALY":315.2263,"EPHEMERIS_TYPE":0,"CLASSIFICATION_TYPE":"U","NORAD_CAT_ID":67781,"ELEMENT_SET_NO":999,"REV_AT_EPOCH":446,"BSTAR":0.000724579,"MEAN_MOTION_DOT":0.00024363,"MEAN_MOTION_DDOT":0},{"OBJECT_NAME":"KUIPER-00222","OBJECT_ID":"2026-030U","EPOCH":"2026-03-05T13:37:30.599328","MEAN_MOTION":15.32396462,"ECCENTRICITY":0.001738,"INCLINATION":51.8797,"RA_OF_ASC_NODE":239.4288,"ARG_OF_PERICENTER":50.6316,"MEAN_ANOMALY":309.6205,"EPHEMERIS_TYPE":0,"CLASSIFICATION_TYPE":"U","NORAD_CAT_ID":67782,"ELEMENT_SET_NO":999,"REV_AT_EPOCH":445,"BSTAR":0.0014723177,"MEAN_MOTION_DOT":0.00046869,"MEAN_MOTION_DDOT":0},{"OBJECT_NAME":"KUIPER-00223","OBJECT_ID":"2026-030V","EPOCH":"2026-03-05T14:48:43.741152","MEAN_MOTION":15.34048186,"ECCENTRICITY":0.00121528,"INCLINATION":51.8827,"RA_OF_ASC_NODE":239.0208,"ARG_OF_PERICENTER":48.798,"MEAN_ANOMALY":311.4052,"EPHEMERIS_TYPE":0,"CLASSIFICATION_TYPE":"U","NORAD_CAT_ID":67783,"ELEMENT_SET_NO":999,"REV_AT_EPOCH":446,"BSTAR":0.00028302931,"MEAN_MOTION_DOT":9.115e-5,"MEAN_MOTION_DDOT":0},{"OBJECT_NAME":"KUIPER-00225","OBJECT_ID":"2026-030W","EPOCH":"2026-03-05T14:16:59.038464","MEAN_MOTION":15.35723598,"ECCENTRICITY":0.00041991,"INCLINATION":51.8809,"RA_OF_ASC_NODE":238.8756,"ARG_OF_PERICENTER":28.3133,"MEAN_ANOMALY":331.808,"EPHEMERIS_TYPE":0,"CLASSIFICATION_TYPE":"U","NORAD_CAT_ID":67784,"ELEMENT_SET_NO":999,"REV_AT_EPOCH":446,"BSTAR":0.0010591144,"MEAN_MOTION_DOT":0.00037172,"MEAN_MOTION_DDOT":0},{"OBJECT_NAME":"KUIPER-00226","OBJECT_ID":"2026-030X","EPOCH":"2026-03-05T13:53:52.880064","MEAN_MOTION":15.31209092,"ECCENTRICITY":0.00198796,"INCLINATION":51.8805,"RA_OF_ASC_NODE":239.5016,"ARG_OF_PERICENTER":61.6462,"MEAN_ANOMALY":298.6524,"EPHEMERIS_TYPE":0,"CLASSIFICATION_TYPE":"U","NORAD_CAT_ID":67785,"ELEMENT_SET_NO":999,"REV_AT_EPOCH":445,"BSTAR":-0.0002441667,"MEAN_MOTION_DOT":-7.886e-5,"MEAN_MOTION_DDOT":0},{"OBJECT_NAME":"KUIPER-00259","OBJECT_ID":"2026-030Y","EPOCH":"2026-03-05T14:32:57.385536","MEAN_MOTION":15.34898469,"ECCENTRICITY":0.0008394,"INCLINATION":51.8815,"RA_OF_ASC_NODE":238.9466,"ARG_OF_PERICENTER":37.7334,"MEAN_ANOMALY":322.4239,"EPHEMERIS_TYPE":0,"CLASSIFICATION_TYPE":"U","NORAD_CAT_ID":67786,"ELEMENT_SET_NO":999,"REV_AT_EPOCH":446,"BSTAR":0.0010072105,"MEAN_MOTION_DOT":0.00034418,"MEAN_MOTION_DDOT":0},{"OBJECT_NAME":"KUIPER-00260","OBJECT_ID":"2026-030Z","EPOCH":"2026-03-05T14:05:50.834688","MEAN_MOTION":15.36280003,"ECCENTRICITY":0.00010611,"INCLINATION":51.8796,"RA_OF_ASC_NODE":238.824,"ARG_OF_PERICENTER":54.2249,"MEAN_ANOMALY":305.8835,"EPHEMERIS_TYPE":0,"CLASSIFICATION_TYPE":"U","NORAD_CAT_ID":67787,"ELEMENT_SET_NO":999,"REV_AT_EPOCH":437,"BSTAR":0.00071562168,"MEAN_MOTION_DOT":0.00025402,"MEAN_MOTION_DDOT":0},{"OBJECT_NAME":"KUIPER-00262","OBJECT_ID":"2026-030AA","EPOCH":"2026-03-05T14:00:43.526304","MEAN_MOTION":15.36596161,"ECCENTRICITY":3.438e-5,"INCLINATION":51.8807,"RA_OF_ASC_NODE":238.8039,"ARG_OF_PERICENTER":126.995,"MEAN_ANOMALY":233.1068,"EPHEMERIS_TYPE":0,"CLASSIFICATION_TYPE":"U","NORAD_CAT_ID":67788,"ELEMENT_SET_NO":999,"REV_AT_EPOCH":446,"BSTAR":0.0007446121,"MEAN_MOTION_DOT":0.00026725,"MEAN_MOTION_DDOT":0},{"OBJECT_NAME":"KUIPER-00266","OBJECT_ID":"2026-030AB","EPOCH":"2026-03-05T14:00:32.118912","MEAN_MOTION":15.30920336,"ECCENTRICITY":0.00224393,"INCLINATION":51.8802,"RA_OF_ASC_NODE":239.5297,"ARG_OF_PERICENTER":61.0477,"MEAN_ANOMALY":299.2753,"EPHEMERIS_TYPE":0,"CLASSIFICATION_TYPE":"U","NORAD_CAT_ID":67789,"ELEMENT_SET_NO":999,"REV_AT_EPOCH":445,"BSTAR":0.00097535218,"MEAN_MOTION_DOT":0.00029536,"MEAN_MOTION_DDOT":0},{"OBJECT_NAME":"KUIPER-00268","OBJECT_ID":"2026-030AC","EPOCH":"2026-03-05T14:13:20.440416","MEAN_MOTION":15.35822749,"ECCENTRICITY":0.00025284,"INCLINATION":51.8843,"RA_OF_ASC_NODE":238.8664,"ARG_OF_PERICENTER":35.6769,"MEAN_ANOMALY":324.4386,"EPHEMERIS_TYPE":0,"CLASSIFICATION_TYPE":"U","NORAD_CAT_ID":67790,"ELEMENT_SET_NO":999,"REV_AT_EPOCH":446,"BSTAR":0.00088438054,"MEAN_MOTION_DOT":0.00031045,"MEAN_MOTION_DDOT":0},{"OBJECT_NAME":"KUIPER-00270","OBJECT_ID":"2026-030AD","EPOCH":"2026-03-05T14:40:49.298016","MEAN_MOTION":15.34470037,"ECCENTRICITY":0.0010111,"INCLINATION":51.8813,"RA_OF_ASC_NODE":238.98,"ARG_OF_PERICENTER":45.4905,"MEAN_ANOMALY":314.6905,"EPHEMERIS_TYPE":0,"CLASSIFICATION_TYPE":"U","NORAD_CAT_ID":67791,"ELEMENT_SET_NO":999,"REV_AT_EPOCH":446,"BSTAR":0.00071126809,"MEAN_MOTION_DOT":0.00023839,"MEAN_MOTION_DDOT":0},{"OBJECT_NAME":"KUIPER-00274","OBJECT_ID":"2026-030AE","EPOCH":"2026-03-05T15:19:06.032064","MEAN_MOTION":15.31109855,"ECCENTRICITY":0.00178627,"INCLINATION":51.8813,"RA_OF_ASC_NODE":239.1555,"ARG_OF_PERICENTER":60.7846,"MEAN_ANOMALY":299.4922,"EPHEMERIS_TYPE":0,"CLASSIFICATION_TYPE":"U","NORAD_CAT_ID":67792,"ELEMENT_SET_NO":999,"REV_AT_EPOCH":446,"BSTAR":-0.0024466121,"MEAN_MOTION_DOT":-0.00074636,"MEAN_MOTION_DDOT":0},{"OBJECT_NAME":"KUIPER-00275","OBJECT_ID":"2026-030AF","EPOCH":"2026-03-05T14:37:02.518752","MEAN_MOTION":15.34543548,"ECCENTRICITY":0.00089431,"INCLINATION":51.8843,"RA_OF_ASC_NODE":238.9719,"ARG_OF_PERICENTER":42.4924,"MEAN_ANOMALY":317.6753,"EPHEMERIS_TYPE":0,"CLASSIFICATION_TYPE":"U","NORAD_CAT_ID":67793,"ELEMENT_SET_NO":999,"REV_AT_EPOCH":446,"BSTAR":0.00070081916,"MEAN_MOTION_DOT":0.0002353,"MEAN_MOTION_DDOT":0},{"OBJECT_NAME":"KUIPER-00276","OBJECT_ID":"2026-030AG","EPOCH":"2026-03-05T13:50:45.881088","MEAN_MOTION":15.313292,"ECCENTRICITY":0.00190109,"INCLINATION":51.881,"RA_OF_ASC_NODE":239.4925,"ARG_OF_PERICENTER":54.8361,"MEAN_ANOMALY":305.4401,"EPHEMERIS_TYPE":0,"CLASSIFICATION_TYPE":"U","NORAD_CAT_ID":67794,"ELEMENT_SET_NO":999,"REV_AT_EPOCH":445,"BSTAR":0.00077093411,"MEAN_MOTION_DOT":0.00023499,"MEAN_MOTION_DDOT":0},{"OBJECT_NAME":"KUIPER-00279","OBJECT_ID":"2026-030AH","EPOCH":"2026-03-05T14:27:09.383616","MEAN_MOTION":15.35225492,"ECCENTRICITY":0.00065069,"INCLINATION":51.8805,"RA_OF_ASC_NODE":238.9179,"ARG_OF_PERICENTER":36.1727,"MEAN_ANOMALY":323.9698,"EPHEMERIS_TYPE":0,"CLASSIFICATION_TYPE":"U","NORAD_CAT_ID":67795,"ELEMENT_SET_NO":999,"REV_AT_EPOCH":446,"BSTAR":0.00073435292,"MEAN_MOTION_DOT":0.00025214,"MEAN_MOTION_DDOT":0}]
