KUIPER-00218            
1 67780U 26030S   26064.60417026  .00034864  00000+0  10171-2 0  9999
2 67780  51.8838 238.9395 0006734  39.0005 321.1466 15.35000869  4463
KUIPER-00220            
1 67781U 26030T   26064.61032988  .00024363  00000+0  72458-3 0  9991
2 67781  51.8813 238.9719 0008312  44.9394 315.2263 15.34573836  4464
KUIPER-00222            
1 67782U 26030U   26064.56771527  .00046869  00000+0  14723-2 0  9990
2 67782  51.8797 239.4288 0017380  50.6316 309.6205 15.32396462  4454
KUIPER-00223            
1 67783U 26030V   26064.61717293  .00009115  00000+0  28303-3 0  9990
2 67783  51.8827 239.0208 0012152  48.7980 311.4052 15.34048186  4465
KUIPER-00225            
1 67784U 26030W   26064.59512776  .00037172  00000+0  10591-2 0  9990
2 67784  51.8809 238.8756 0004199  28.3133 331.8080 15.35723598  4462
KUIPER-00226            
1 67785U 26030X   26064.57908426 -.00007886  00000+0 -24417-3 0  9994
2 67785  51.8805 239.5016 0019879  61.6462 298.6524 15.31209092  4458
KUIPER-00259            
1 67786U 26030Y   26064.60621974  .00034418  00000+0  10072-2 0  9999
2 67786  51.8815 238.9466 0008394  37.7334 322.4239 15.34898469  4469
KUIPER-00260            
1 67787U 26030Z   26064.58739392  .00025402  00000+0  71562-3 0  9996
2 67787  51.8796 238.8240 0001061  54.2249 305.8835 15.36280003  4378
KUIPER-00262            
1 67788U 26030AA  26064.58383711  .00026725  00000+0  74461-3 0  9997
2 67788  51.8807 238.8039 0000343 126.9950 233.1068 15.36596161  4462
KUIPER-00266            
1 67789U 26030AB  26064.58370508  .00029536  00000+0  97535-3 0  9998
2 67789  51.8802 239.5297 0022439  61.0477 299.2753 15.30920336  4457
KUIPER-00268            
1 67790U 26030AC  26064.59259769  .00031045  00000+0  88438-3 0  9996
2 67790  51.8843 238.8664 0002528  35.6769 324.4386 15.35822749  4460
KUIPER-00270            
1 67791U 26030AD  26064.61168169  .00023839  00000+0  71127-3 0  9992
2 67791  51.8813 238.9800 0010111  45.4905 314.6905 15.34470037  4465
KUIPER-00274            
1 67792U 26030AE  26064.63826426 -.00074636  00000+0 -24466-2 0  9998
2 67792  51.8813 239.1555 0017862  60.7846 299.4922 15.31109855  4463
KUIPER-00275            
1 67793U 26030AF  26064.60905693  .00023530  00000+0  70082-3 0  9991
2 67793  51.8843 238.9719 0008943  42.4924 317.6753 15.34543548  4469
KUIPER-00276            
1 67794U 26030AG  26064.57691992  .00023499  00000+0  77093-3 0  9995
2 67794  51.8810 239.4925 0019010  54.8361 305.4401 15.31329200  4456
KUIPER-00279            
1 67795U 26030AH  26064.60219194  .00025214  00000+0  73435-3 0  9993
2 67795  51.8805 238.9179 0006506  36.1727 323.9698 15.35225492  4467
